GLOBALSTAR M067         
1 32263U 07048A   25345.19205166 -.00000082  00000+0  11747-3 0  9997
2 32263  51.9720 237.9967 0001785  30.4763 137.0218 12.40682710831453
GLOBALSTAR M070         
1 32264U 07048B   25345.10779267 -.00000075  00000+0  15900-3 0  9994
2 32264  51.9766 309.5265 0000325  70.6940  10.1192 12.62327143836012
GLOBALSTAR M066         
1 32265U 07048C   25345.19953192 -.00000084  00000+0  92859-4 0  9994
2 32265  51.9583 237.5712 0005472  18.1040 151.9947 12.30382886837083
GLOBALSTAR M068         
1 32266U 07048D   25345.15168630 -.00000065  00000+0  21311-3 0  9999
2 32266  51.9869 122.8024 0001809 137.5382  33.4580 12.62834988839919
GLOBALSTAR M079         
1 37188U 10054A   25345.22169517 -.00000082  00000+0  12136-3 0  9995
2 37188  52.0056 320.8652 0000443  14.0447 358.7493 12.62269103698817
GLOBALSTAR M074         
1 37189U 10054B   25345.26884675 -.00000084  00000+0  10977-3 0  9992
2 37189  52.0036 320.0166 0000551  53.2829  53.6083 12.62264045699421
GLOBALSTAR M076         
1 37190U 10054C   25345.19568543 -.00000084  00000+0  11293-3 0  9991
2 37190  52.0047 320.4277 0000607  36.3630 336.7349 12.62267966699139
GLOBALSTAR M077         
1 37191U 10054D   25345.10122653 -.00000066  00000+0  21752-3 0  9992
2 37191  52.0110 297.0721 0000759  14.6610  67.8094 11.68138698699165
